[{"OBJECT_NAME":"STARLINK-30100","OBJECT_ID":"2023-119X","EPOCH":"2026-03-09T22:00:01.999584","MEAN_MOTION":15.17573098,"ECCENTRICITY":0.00019511,"INCLINATION":43.0003,"RA_OF_ASC_NODE":79.9179,"ARG_OF_PERICENTER":284.7245,"MEAN_ANOMALY":141.6693,"EPHEMERIS_TYPE":0,"CLASSIFICATION_TYPE":"U","NORAD_CAT_ID":57623,"ELEMENT_SET_NO":999,"REV_AT_EPOCH":573,"BSTAR":0.052332137,"MEAN_MOTION_DOT":0.01165297,"MEAN_MOTION_DDOT":0},{"OBJECT_NAME":"FLOCK 4G-8","OBJECT_ID":"2025-009E","EPOCH":"2026-03-09T17:22:17.546016","MEAN_MOTION":15.27623414,"ECCENTRICITY":0.00030503,"INCLINATION":97.4045,"RA_OF_ASC_NODE":151.2834,"ARG_OF_PERICENTER":315.2538,"MEAN_ANOMALY":44.8455,"EPHEMERIS_TYPE":0,"CLASSIFICATION_TYPE":"U","NORAD_CAT_ID":62613,"ELEMENT_SET_NO":999,"REV_AT_EPOCH":6372,"BSTAR":0.0005043806,"MEAN_MOTION_DOT":0.00013559,"MEAN_MOTION_DDOT":0}]
